{
"type": "FeatureCollection",
"name": "west_midlands_boundary",
"crs": { "type": "name", "properties": { "name": "urn:ogc:def:crs:OGC:1.3:CRS84" } },
"features": [
{ "type": "Feature", "properties": { "bbox_west": -73.789965, "bbox_south": 41.061797, "bbox_east": -73.7682089, "bbox_north": 41.088916, "place_id": 395395755, "osm_type": "relation", "osm_id": 175594, "lat": 41.075213, "lon": -73.775006128326993, "class": "boundary", "type": "census", "place_rank": 25, "importance": 0.44484680334501514, "addresstype": "census", "name": "Valhalla", "display_name": "Valhalla, Town of Mount Pleasant, Westchester County, New York, 10595, United States" }, "geometry": { "type": "Polygon", "coordinates": [ [ [ -73.789965, 41.088732 ], [ -73.789723, 41.088358 ], [ -73.789521, 41.088124 ], [ -73.789197, 41.087879 ], [ -73.789044, 41.087794 ], [ -73.788989, 41.087795 ], [ -73.788873, 41.087686 ], [ -73.788277, 41.087222 ], [ -73.788079, 41.087023 ], [ -73.788022, 41.086906 ], [ -73.787989, 41.086694 ], [ -73.78799, 41.086482 ], [ -73.788032, 41.086316 ], [ -73.788139, 41.086103 ], [ -73.788167, 41.085964 ], [ -73.788146, 41.085867 ], [ -73.788064, 41.085729 ], [ -73.787096, 41.084514 ], [ -73.786343, 41.083638 ], [ -73.785623, 41.082752 ], [ -73.785147, 41.082259 ], [ -73.784789, 41.081755 ], [ -73.783863, 41.080525 ], [ -73.783685, 41.080198 ], [ -73.78354, 41.079597 ], [ -73.783508, 41.079544 ], [ -73.783454, 41.079494 ], [ -73.783149, 41.079361 ], [ -73.782592, 41.079248 ], [ -73.78245, 41.079205 ], [ -73.782266, 41.079113 ], [ -73.78218, 41.079053 ], [ -73.782134, 41.079007 ], [ -73.782007, 41.078791 ], [ -73.7819, 41.078535 ], [ -73.781719, 41.078291 ], [ -73.781559, 41.078163 ], [ -73.781133, 41.077927 ], [ -73.78097, 41.077785 ], [ -73.780864, 41.077413 ], [ -73.780811, 41.077328 ], [ -73.780725, 41.077225 ], [ -73.780321, 41.076851 ], [ -73.780268, 41.076769 ], [ -73.78014, 41.076445 ], [ -73.780055, 41.076321 ], [ -73.779828, 41.076079 ], [ -73.779728, 41.076012 ], [ -73.77915, 41.075718 ], [ -73.778866, 41.075544 ], [ -73.778713, 41.075395 ], [ -73.778483, 41.075031 ], [ -73.778401, 41.074939 ], [ -73.778248, 41.074794 ], [ -73.777769, 41.0745 ], [ -73.777563, 41.074352 ], [ -73.777514, 41.074292 ], [ -73.777482, 41.074214 ], [ -73.77745, 41.073964 ], [ -73.777517, 41.073574 ], [ -73.777805, 41.073014 ], [ -73.777844, 41.072833 ], [ -73.777862, 41.072498 ], [ -73.777897, 41.072383 ], [ -73.778473, 41.071988 ], [ -73.778636, 41.071789 ], [ -73.779453, 41.070603 ], [ -73.779868, 41.070075 ], [ -73.780269, 41.069491 ], [ -73.780411, 41.069351 ], [ -73.780456, 41.069343 ], [ -73.780457, 41.069319 ], [ -73.780614, 41.069263 ], [ -73.780685, 41.069253 ], [ -73.781192, 41.069662 ], [ -73.781423, 41.069779 ], [ -73.781785, 41.069877 ], [ -73.782451, 41.069954 ], [ -73.782402, 41.069864 ], [ -73.782042, 41.069596 ], [ -73.781774, 41.069336 ], [ -73.781521, 41.068938 ], [ -73.781168, 41.06832 ], [ -73.781088, 41.068226 ], [ -73.780855, 41.068109 ], [ -73.780257, 41.067568 ], [ -73.780138, 41.067115 ], [ -73.779521, 41.066468 ], [ -73.779536, 41.066241 ], [ -73.77959, 41.066031 ], [ -73.779197, 41.065605 ], [ -73.778867, 41.065358 ], [ -73.776456, 41.064073 ], [ -73.775892, 41.063754 ], [ -73.775602, 41.063537 ], [ -73.774434, 41.062499 ], [ -73.774122, 41.062291 ], [ -73.773454, 41.061797 ], [ -73.77351, 41.062122 ], [ -73.773511, 41.062912 ], [ -73.773741, 41.063269 ], [ -73.773824, 41.06374 ], [ -73.773727, 41.063954 ], [ -73.773703, 41.064119 ], [ -73.773785, 41.064415 ], [ -73.774018, 41.064655 ], [ -73.774025, 41.064745 ], [ -73.774073, 41.064801 ], [ -73.774068, 41.064842 ], [ -73.774264, 41.064944 ], [ -73.774251, 41.065022 ], [ -73.774042, 41.065161 ], [ -73.773958, 41.065336 ], [ -73.773964, 41.06549 ], [ -73.774079, 41.065549 ], [ -73.774233, 41.065531 ], [ -73.774321, 41.065642 ], [ -73.774314, 41.06589 ], [ -73.774521, 41.06613 ], [ -73.77439, 41.066263 ], [ -73.774243, 41.066345 ], [ -73.774095, 41.066346 ], [ -73.773998, 41.066391 ], [ -73.774074, 41.066609 ], [ -73.774063, 41.06674 ], [ -73.773933, 41.066782 ], [ -73.773687, 41.066733 ], [ -73.773579, 41.066763 ], [ -73.773336, 41.066663 ], [ -73.773239, 41.066764 ], [ -73.773104, 41.066835 ], [ -73.773014, 41.066935 ], [ -73.772965, 41.067077 ], [ -73.772887, 41.067191 ], [ -73.77308, 41.067419 ], [ -73.773096, 41.067541 ], [ -73.773238, 41.067687 ], [ -73.773399, 41.067949 ], [ -73.773408, 41.068133 ], [ -73.773244, 41.068407 ], [ -73.773125, 41.068469 ], [ -73.772981, 41.068497 ], [ -73.772789, 41.068504 ], [ -73.772579, 41.068409 ], [ -73.772366, 41.068409 ], [ -73.772243, 41.06848 ], [ -73.77213, 41.068481 ], [ -73.772021, 41.068553 ], [ -73.771937, 41.068782 ], [ -73.771739, 41.069051 ], [ -73.771624, 41.069125 ], [ -73.771422, 41.069352 ], [ -73.771265, 41.069407 ], [ -73.771079, 41.069401 ], [ -73.77093, 41.069289 ], [ -73.770259, 41.069249 ], [ -73.770045, 41.069379 ], [ -73.769832, 41.069412 ], [ -73.768898, 41.06947 ], [ -73.768719, 41.069567 ], [ -73.768649, 41.069725 ], [ -73.768352, 41.069939 ], [ -73.7682089, 41.0700946 ], [ -73.768614, 41.070222 ], [ -73.768992, 41.070373 ], [ -73.76923, 41.070536 ], [ -73.769358, 41.070654 ], [ -73.769499, 41.070827 ], [ -73.769719, 41.071191 ], [ -73.770018, 41.071616 ], [ -73.770167, 41.071797 ], [ -73.770347, 41.071981 ], [ -73.770575, 41.072171 ], [ -73.771079, 41.072487 ], [ -73.771236, 41.072627 ], [ -73.77125, 41.074363 ], [ -73.771274, 41.074563 ], [ -73.771501, 41.075615 ], [ -73.771485, 41.076073 ], [ -73.771412, 41.076568 ], [ -73.771341, 41.076874 ], [ -73.771279, 41.076956 ], [ -73.771084, 41.077025 ], [ -73.771065, 41.077295 ], [ -73.771084, 41.077589 ], [ -73.771212, 41.078667 ], [ -73.771386, 41.079817 ], [ -73.771493, 41.080247 ], [ -73.771624, 41.08055 ], [ -73.771723, 41.080716 ], [ -73.772057, 41.081121 ], [ -73.772291, 41.08133 ], [ -73.772433, 41.081429 ], [ -73.77342, 41.082009 ], [ -73.773752, 41.082223 ], [ -73.774264, 41.082578 ], [ -73.774566, 41.082812 ], [ -73.774761, 41.08299 ], [ -73.775198, 41.08342 ], [ -73.775623, 41.083938 ], [ -73.776476, 41.085295 ], [ -73.776797, 41.085695 ], [ -73.776928, 41.085893 ], [ -73.776975, 41.085908 ], [ -73.777172, 41.086037 ], [ -73.777269, 41.086075 ], [ -73.7774, 41.086094 ], [ -73.777451, 41.086085 ], [ -73.777507, 41.087444 ], [ -73.777493, 41.088029 ], [ -73.77743, 41.088916 ], [ -73.778441, 41.08887 ], [ -73.779198, 41.088554 ], [ -73.780306, 41.088018 ], [ -73.783377, 41.088467 ], [ -73.788584, 41.088914 ], [ -73.789965, 41.088732 ] ] ] } }
]
}
